{
  "norad_id": 66333,
  "name": "STARLINK-35400",
  "history": [
    {
      "epoch": "2026-03-28T17:53:08.557152Z",
      "apogee_km": 484.2944394434253,
      "perigee_km": 481.70175371313144,
      "latitude_deg": -9.773230988589233e-06,
      "longitude_deg": 10.886958889947357,
      "height_km": 482.7941452220564,
      "semi_major_axis_km": 6861.1350965782785,
      "eccentricity": 0.00018894,
      "inclination_deg": 43.0015,
      "raan_deg": 105.3339,
      "arg_perigee_deg": 269.1693,
      "mean_anomaly_deg": 90.8942,
      "mean_motion_rev_day": 15.27597032
    }
  ]
}