{"fetched_at":"2026-03-30T06:02:59Z","count":15439,"tles":[{"name":"STARLINK-35400","line1":"1 66333U 25253Q   26087.74523793  .00020918  00000+0  76709-3 0  9992","line2":"2 66333  43.0015 105.3339 0001889 269.1693  90.8942 15.27597032 23156","category":"Starlink"}]}